% program   : RTKLIB ver.EX 2.5.1
% inp file  : gnss/rinex/rover/rover_ublox_1s.obs
% inp file  : gnss/ppp/base_ventana.obs
% inp file  : gnss/rinex/base/base_completa.nav
% obs start : 2026/08/30 16:27:59.0 GPST (week2434  59279.0s)
% obs end   : 2026/08/30 16:30:04.0 GPST (week2434  59404.0s)
% pos mode  : Static
% freqs     : L1+L2/E5b
% solution  : Forward
% elev mask : 15.0 deg
% dynamics  : off
% tidecorr  :
% ionos opt : Broadcast
% tropo opt : Saastamoinen
% ephemeris : Broadcast
% navi sys  : GPS GLONASS Galileo QZSS SBAS
% amb res   : Fix and Hold
% amb glo   : ON
% val thres : 3.0
% antenna1  :                       ( 0.0000  0.0000  0.0000)
% antenna2  :                       ( 0.0000  0.0000  0.0000)
% ref pos   :  18.459649417  -69.916687222   -11.5840
%
% (lat/lon/height=WGS84/ellipsoidal,Q=1:fix,2:float,3:sbas,4:dgps,5:single,6:ppp,ns=# of satellites)
%  GPST                  latitude(deg) longitude(deg)  height(m)   Q  ns   sdn(m)   sde(m)   sdu(m)  sdne(m)  sdeu(m)  sdun(m) age(s)  ratio
2026/08/30 16:27:59.000   18.461985648  -69.915344284   -15.2959   2  20   0.7204   0.8642   2.0053   0.2518   0.6093  -0.0876   0.00    0.0
2026/08/30 16:28:00.000   18.461987336  -69.915341319   -15.2119   2  21   0.5364   0.6382   1.4669   0.1785   0.4283   0.0692   0.00    0.0
2026/08/30 16:28:01.000   18.461989092  -69.915341845   -14.0814   2  22   0.4437   0.5268   1.2049   0.1588   0.3672  -0.0169   0.00    0.0
2026/08/30 16:28:02.000   18.461989662  -69.915339864   -13.0320   2  23   0.3870   0.4596   1.0461   0.1419   0.3232  -0.0282   0.00    0.0
2026/08/30 16:28:03.000   18.461988653  -69.915340989   -13.0260   2  22   0.3483   0.4163   0.9442   0.1299   0.2971   0.0399   0.00    0.0
2026/08/30 16:28:04.000   18.461987911  -69.915341579   -13.1412   2  22   0.3191   0.3832   0.8659   0.1200   0.2756   0.0497   0.00    0.0
2026/08/30 16:28:05.000   18.461987284  -69.915342060   -13.2199   2  22   0.2961   0.3568   0.8029   0.1121   0.2575   0.0521   0.00    0.0
2026/08/30 16:28:06.000   18.461987024  -69.915341827   -13.0456   2  20   0.2770   0.3337   0.7480   0.1037   0.2378   0.0441   0.00    1.1
2026/08/30 16:28:07.000   18.461986315  -69.915342000   -12.8684   2  21   0.2611   0.3141   0.7013   0.0965   0.2203   0.0327   0.00    1.2
2026/08/30 16:28:08.000   18.461986183  -69.915342879   -12.9115   2  24   0.2471   0.2974   0.6615   0.0914   0.2077  -0.0113   0.00    1.0
2026/08/30 16:28:09.000   18.461986484  -69.915342565   -12.8124   2  23   0.2354   0.2834   0.6279   0.0865   0.1959  -0.0242   0.00    1.1
2026/08/30 16:28:10.000   18.461986734  -69.915341935   -12.8256   2  22   0.2253   0.2715   0.5984   0.0815   0.1849  -0.0293   0.00    1.1
2026/08/30 16:28:11.000   18.461986884  -69.915341891   -12.9067   2  23   0.2160   0.2606   0.5717   0.0772   0.1758  -0.0344   0.00    1.1
2026/08/30 16:28:12.000   18.461987038  -69.915341446   -12.8876   2  22   0.2077   0.2508   0.5475   0.0735   0.1675  -0.0387   0.00    1.0
2026/08/30 16:28:13.000   18.461987232  -69.915341343   -12.9167   2  22   0.2002   0.2421   0.5254   0.0701   0.1598  -0.0427   0.00    1.0
2026/08/30 16:28:14.000   18.461987263  -69.915341448   -12.9688   2  22   0.1933   0.2346   0.5060   0.0672   0.1542  -0.0448   0.00    1.0
2026/08/30 16:28:15.000   18.461987252  -69.915341630   -13.0753   2  23   0.1870   0.2275   0.4878   0.0649   0.1495  -0.0475   0.00    1.0
2026/08/30 16:28:16.000   18.461987186  -69.915341544   -13.3242   2  21   0.1813   0.2213   0.4712   0.0621   0.1441  -0.0484   0.00    1.1
2026/08/30 16:28:17.000   18.461987071  -69.915341902   -13.6187   2  22   0.1759   0.2150   0.4549   0.0594   0.1382  -0.0505   0.00    1.1
2026/08/30 16:28:18.000   18.461987100  -69.915341863   -13.7871   2  23   0.1708   0.2091   0.4395   0.0568   0.1325  -0.0524   0.00    1.1
2026/08/30 16:28:19.000   18.461987076  -69.915342244   -13.9764   2  23   0.1661   0.2034   0.4248   0.0545   0.1273  -0.0543   0.00    1.0
2026/08/30 16:28:20.000   18.461987022  -69.915342646   -14.1928   2  24   0.1617   0.1983   0.4111   0.0525   0.1227  -0.0558   0.00    1.0
2026/08/30 16:28:21.000   18.461986988  -69.915342677   -14.2904   2  24   0.1575   0.1935   0.3982   0.0506   0.1184  -0.0570   0.00    1.1
2026/08/30 16:28:22.000   18.461986771  -69.915342661   -14.3981   2  23   0.1537   0.1891   0.3861   0.0485   0.1140  -0.0576   0.00    1.0
2026/08/30 16:28:23.000   18.461986648  -69.915342356   -14.5048   2  24   0.1499   0.1848   0.3745   0.0467   0.1101  -0.0583   0.00    1.0
2026/08/30 16:28:24.000   18.461986571  -69.915342156   -14.5770   2  24   0.1464   0.1808   0.3634   0.0450   0.1064  -0.0589   0.00    1.1
2026/08/30 16:28:25.000   18.461986458  -69.915342038   -14.6395   2  23   0.1430   0.1770   0.3528   0.0432   0.1027  -0.0593   0.00    1.0
2026/08/30 16:28:26.000   18.461986340  -69.915341947   -14.7386   2  21   0.1398   0.1735   0.3429   0.0414   0.0991  -0.0595   0.00    1.0
2026/08/30 16:28:27.000   18.461986320  -69.915341886   -14.8503   2  23   0.1368   0.1702   0.3333   0.0396   0.0955  -0.0595   0.00    1.0
2026/08/30 16:28:28.000   18.461986174  -69.915341981   -14.9622   2  23   0.1339   0.1670   0.3241   0.0379   0.0922  -0.0595   0.00    1.0
2026/08/30 16:28:29.000   18.461986064  -69.915342023   -15.0603   2  23   0.1311   0.1639   0.3153   0.0362   0.0889  -0.0595   0.00    0.0
2026/08/30 16:28:30.000   18.461985880  -69.915342028   -15.1065   2  23   0.1284   0.1610   0.3069   0.0346   0.0858  -0.0594   0.00    1.0
2026/08/30 16:28:31.000   18.461985755  -69.915342185   -15.1463   2  24   0.1258   0.1582   0.2987   0.0332   0.0830  -0.0593   0.00    1.0
2026/08/30 16:28:32.000   18.461985765  -69.915342368   -15.2109   2  24   0.1232   0.1554   0.2908   0.0318   0.0803  -0.0592   0.00    1.0
2026/08/30 16:28:33.000   18.461985646  -69.915342543   -15.2595   2  24   0.1208   0.1528   0.2832   0.0304   0.0777  -0.0591   0.00    1.0
2026/08/30 16:28:34.000   18.461985523  -69.915342783   -15.3258   2  23   0.1185   0.1503   0.2759   0.0290   0.0752  -0.0588   0.00    1.0
2026/08/30 16:28:35.000   18.461985409  -69.915343102   -15.3879   2  23   0.1162   0.1479   0.2689   0.0276   0.0727  -0.0586   0.00    1.0
2026/08/30 16:28:36.000   18.461985327  -69.915343404   -15.4722   2  24   0.1140   0.1456   0.2621   0.0263   0.0704  -0.0582   0.00    1.0
2026/08/30 16:28:37.000   18.461985314  -69.915343745   -15.5549   2  24   0.1119   0.1434   0.2556   0.0250   0.0681  -0.0579   0.00    1.0
2026/08/30 16:28:38.000   18.461985322  -69.915344091   -15.6557   2  24   0.1098   0.1412   0.2493   0.0236   0.0659  -0.0575   0.00    1.0
2026/08/30 16:28:39.000   18.461985272  -69.915344410   -15.7367   2  24   0.1078   0.1392   0.2432   0.0223   0.0638  -0.0571   0.00    0.0
2026/08/30 16:28:40.000   18.461985132  -69.915344698   -15.8066   2  23   0.1059   0.1371   0.2374   0.0210   0.0617  -0.0567   0.00    1.0
2026/08/30 16:28:41.000   18.461985054  -69.915345053   -15.8796   2  23   0.1040   0.1352   0.2317   0.0197   0.0597  -0.0562   0.00    1.0
2026/08/30 16:28:42.000   18.461984955  -69.915345426   -15.9640   2  22   0.1022   0.1333   0.2263   0.0183   0.0578  -0.0557   0.00    1.0
2026/08/30 16:28:43.000   18.461984927  -69.915345901   -16.0522   2  23   0.1004   0.1315   0.2211   0.0170   0.0562  -0.0551   0.00    1.0
2026/08/30 16:28:44.000   18.461984811  -69.915346386   -16.1327   2  23   0.0987   0.1298   0.2160   0.0157   0.0546  -0.0546   0.00    1.0
2026/08/30 16:28:45.000   18.461984722  -69.915346800   -16.2413   2  22   0.0970   0.1282   0.2112   0.0144   0.0530  -0.0540   0.00    1.0
2026/08/30 16:28:46.000   18.461984572  -69.915347230   -16.3335   2  23   0.0954   0.1266   0.2064   0.0130   0.0515  -0.0535   0.00    1.0
2026/08/30 16:28:47.000   18.461984415  -69.915347581   -16.4184   2  23   0.0938   0.1250   0.2019   0.0115   0.0500  -0.0529   0.00    1.0
2026/08/30 16:28:48.000   18.461984353  -69.915347886   -16.5166   2  23   0.0922   0.1235   0.1974   0.0098   0.0485  -0.0523   0.00    1.0
2026/08/30 16:28:49.000   18.461984373  -69.915348091   -16.6166   2  23   0.0907   0.1220   0.1931   0.0080   0.0471  -0.0517   0.00    1.0
2026/08/30 16:28:50.000   18.461984387  -69.915348255   -16.7427   2  23   0.0892   0.1205   0.1890   0.0058   0.0457  -0.0511   0.00    1.0
2026/08/30 16:28:51.000   18.461984454  -69.915348369   -16.8404   2  23   0.0878   0.1190   0.1850   0.0020   0.0443  -0.0505   0.00    1.0
2026/08/30 16:28:52.000   18.461984511  -69.915348520   -16.9298   2  23   0.0865   0.1177   0.1811  -0.0049   0.0430  -0.0499   0.00    1.0
2026/08/30 16:28:53.000   18.461984619  -69.915348668   -17.0314   2  23   0.0851   0.1163   0.1773  -0.0070   0.0416  -0.0494   0.00    1.0
2026/08/30 16:28:54.000   18.461984781  -69.915348802   -17.1373   2  23   0.0838   0.1151   0.1738  -0.0083   0.0401  -0.0489   0.00    1.0
2026/08/30 16:28:55.000   18.461984977  -69.915348939   -17.2629   2  22   0.0825   0.1138   0.1703  -0.0094   0.0387  -0.0483   0.00    1.0
2026/08/30 16:28:56.000   18.461985146  -69.915349042   -17.3519   2  23   0.0813   0.1126   0.1669  -0.0104   0.0373  -0.0478   0.00    1.0
2026/08/30 16:28:57.000   18.461985268  -69.915349046   -17.4440   2  22   0.0801   0.1115   0.1637  -0.0113   0.0359  -0.0473   0.00    1.0
2026/08/30 16:28:58.000   18.461985423  -69.915348996   -17.5420   2  22   0.0789   0.1103   0.1605  -0.0121   0.0345  -0.0467   0.00    1.0
2026/08/30 16:28:59.000   18.461985535  -69.915349055   -17.6498   2  22   0.0778   0.1092   0.1575  -0.0128   0.0332  -0.0462   0.00    1.0
2026/08/30 16:29:00.000   18.461985592  -69.915349136   -17.7331   2  22   0.0767   0.1081   0.1545  -0.0134   0.0319  -0.0456   0.00    1.0
2026/08/30 16:29:01.000   18.461985633  -69.915349103   -17.8235   2  21   0.0755   0.1071   0.1516  -0.0140   0.0306  -0.0451   0.00    1.0
2026/08/30 16:29:02.000   18.461985558  -69.915349173   -17.8758   2  22   0.0745   0.1059   0.1488  -0.0144   0.0292  -0.0446   0.00    1.0
2026/08/30 16:29:03.000   18.461985631  -69.915349147   -17.9475   2  22   0.0734   0.1048   0.1460  -0.0148   0.0279  -0.0440   0.00    1.0
2026/08/30 16:29:04.000   18.461985665  -69.915349178   -18.0178   2  23   0.0724   0.1037   0.1433  -0.0152   0.0266  -0.0435   0.00    1.0
2026/08/30 16:29:05.000   18.461985684  -69.915349238   -18.0612   2  22   0.0714   0.1027   0.1407  -0.0155   0.0253  -0.0429   0.00    1.0
2026/08/30 16:29:06.000   18.461985771  -69.915349370   -18.1132   2  23   0.0704   0.1017   0.1382  -0.0159   0.0241  -0.0423   0.00    1.0
2026/08/30 16:29:07.000   18.461985928  -69.915349494   -18.1914   2  23   0.0695   0.1007   0.1358  -0.0162   0.0229  -0.0418   0.00    1.0
2026/08/30 16:29:08.000   18.461986042  -69.915349578   -18.2555   2  22   0.0686   0.0998   0.1334  -0.0165   0.0216  -0.0413   0.00    1.0
2026/08/30 16:29:09.000   18.461986050  -69.915349691   -18.2970   2  22   0.0677   0.0988   0.1310  -0.0168   0.0204  -0.0407   0.00    1.0
2026/08/30 16:29:10.000   18.461986063  -69.915349807   -18.3405   2  22   0.0668   0.0979   0.1288  -0.0171   0.0190  -0.0402   0.00    1.0
2026/08/30 16:29:11.000   18.461986047  -69.915349895   -18.3787   2  21   0.0659   0.0971   0.1266  -0.0173   0.0177  -0.0397   0.00    1.0
2026/08/30 16:29:12.000   18.461986003  -69.915350026   -18.4072   2  22   0.0650   0.0962   0.1244  -0.0175   0.0164  -0.0392   0.00    1.0
2026/08/30 16:29:13.000   18.461986007  -69.915350158   -18.4383   2  22   0.0642   0.0954   0.1224  -0.0177   0.0151  -0.0387   0.00    1.1
2026/08/30 16:29:14.000   18.461985997  -69.915350281   -18.4649   2  21   0.0634   0.0945   0.1203  -0.0179   0.0138  -0.0382   0.00    1.1
2026/08/30 16:29:15.000   18.461985967  -69.915350356   -18.4700   2  21   0.0625   0.0938   0.1184  -0.0181   0.0125  -0.0377   0.00    1.0
2026/08/30 16:29:16.000   18.461985908  -69.915350466   -18.4764   2  21   0.0617   0.0930   0.1164  -0.0183   0.0111  -0.0372   0.00    1.0
2026/08/30 16:29:17.000   18.461985885  -69.915350606   -18.4869   2  21   0.0610   0.0922   0.1145  -0.0184   0.0095  -0.0367   0.00    1.0
2026/08/30 16:29:18.000   18.461985879  -69.915350669   -18.5020   2  23   0.0602   0.0914   0.1127  -0.0185   0.0077  -0.0363   0.00    1.0
2026/08/30 16:29:19.000   18.461985855  -69.915350754   -18.5249   2  22   0.0594   0.0906   0.1109  -0.0186   0.0056  -0.0358   0.00    1.0
2026/08/30 16:29:20.000   18.461985802  -69.915350914   -18.5244   2  22   0.0587   0.0898   0.1092  -0.0188   0.0028  -0.0353   0.00    1.0
2026/08/30 16:29:21.000   18.461985730  -69.915351106   -18.5406   2  20   0.0580   0.0891   0.1075  -0.0189  -0.0042  -0.0349   0.00    1.0
2026/08/30 16:29:22.000   18.461985709  -69.915351341   -18.5590   2  20   0.0572   0.0884   0.1058  -0.0190  -0.0064  -0.0345   0.00    1.0
2026/08/30 16:29:23.000   18.461985714  -69.915351517   -18.5781   2  20   0.0565   0.0876   0.1042  -0.0190  -0.0080  -0.0340   0.00    1.0
2026/08/30 16:29:24.000   18.461985711  -69.915351839   -18.5929   2  22   0.0559   0.0869   0.1026  -0.0191  -0.0091  -0.0336   0.00    1.0
2026/08/30 16:29:25.000   18.461985752  -69.915352036   -18.6205   2  20   0.0552   0.0862   0.1010  -0.0192  -0.0101  -0.0332   0.00    1.0
2026/08/30 16:29:26.000   18.461985746  -69.915352149   -18.6339   2  22   0.0545   0.0855   0.0995  -0.0192  -0.0110  -0.0327   0.00    1.0
2026/08/30 16:29:27.000   18.461985744  -69.915352338   -18.6430   2  21   0.0539   0.0848   0.0980  -0.0193  -0.0117  -0.0323   0.00    1.0
2026/08/30 16:29:28.000   18.461985719  -69.915352476   -18.6415   2  22   0.0532   0.0841   0.0966  -0.0194  -0.0123  -0.0319   0.00    1.0
2026/08/30 16:29:29.000   18.461985700  -69.915352663   -18.6357   2  20   0.0526   0.0834   0.0952  -0.0194  -0.0129  -0.0315   0.00    1.1
2026/08/30 16:29:30.000   18.461985712  -69.915352829   -18.6309   2  22   0.0520   0.0828   0.0938  -0.0194  -0.0134  -0.0311   0.00    1.0
2026/08/30 16:29:31.000   18.461985708  -69.915352934   -18.6319   2  22   0.0514   0.0821   0.0924  -0.0194  -0.0138  -0.0307   0.00    1.0
2026/08/30 16:29:32.000   18.461985771  -69.915352880   -18.6201   2  21   0.0508   0.0815   0.0911  -0.0194  -0.0143  -0.0304   0.00    1.0
2026/08/30 16:29:33.000   18.461985859  -69.915352877   -18.6199   2  21   0.0502   0.0809   0.0899  -0.0194  -0.0147  -0.0300   0.00    1.1
2026/08/30 16:29:34.000   18.461985904  -69.915352835   -18.6075   2  20   0.0496   0.0803   0.0886  -0.0194  -0.0150  -0.0296   0.00    1.0
2026/08/30 16:29:35.000   18.461985951  -69.915352905   -18.5925   2  20   0.0491   0.0797   0.0874  -0.0194  -0.0153  -0.0293   0.00    1.0
2026/08/30 16:29:36.000   18.461986026  -69.915352836   -18.5884   2  20   0.0485   0.0791   0.0862  -0.0194  -0.0156  -0.0289   0.00    1.0
2026/08/30 16:29:37.000   18.461986124  -69.915352759   -18.5936   2  20   0.0480   0.0785   0.0850  -0.0194  -0.0159  -0.0286   0.00    1.0
2026/08/30 16:29:38.000   18.461986237  -69.915352777   -18.5942   2  21   0.0474   0.0780   0.0839  -0.0194  -0.0161  -0.0282   0.00    1.0
2026/08/30 16:29:39.000   18.461986369  -69.915352776   -18.6002   2  20   0.0469   0.0774   0.0827  -0.0194  -0.0163  -0.0279   0.00    1.1
2026/08/30 16:29:40.000   18.461986455  -69.915352861   -18.5992   2  21   0.0464   0.0768   0.0816  -0.0194  -0.0166  -0.0276   0.00    1.0
2026/08/30 16:29:41.000   18.461986535  -69.915352928   -18.5858   2  22   0.0459   0.0762   0.0806  -0.0193  -0.0167  -0.0272   0.00    1.0
2026/08/30 16:29:42.000   18.461986615  -69.915352922   -18.5728   2  22   0.0454   0.0757   0.0795  -0.0193  -0.0169  -0.0269   0.00    1.0
2026/08/30 16:29:43.000   18.461986705  -69.915352955   -18.5615   2  21   0.0449   0.0751   0.0785  -0.0193  -0.0170  -0.0266   0.00    1.0
2026/08/30 16:29:44.000   18.461986782  -69.915352973   -18.5483   2  21   0.0444   0.0746   0.0774  -0.0192  -0.0172  -0.0263   0.00    1.0
2026/08/30 16:29:45.000   18.461986850  -69.915352963   -18.5281   2  23   0.0439   0.0740   0.0765  -0.0192  -0.0173  -0.0259   0.00    1.0
2026/08/30 16:29:46.000   18.461987008  -69.915352970   -18.5316   2  21   0.0435   0.0735   0.0755  -0.0192  -0.0174  -0.0256   0.00    1.0
2026/08/30 16:29:47.000   18.461987079  -69.915352958   -18.5189   2  22   0.0430   0.0729   0.0745  -0.0191  -0.0175  -0.0253   0.00    1.0
2026/08/30 16:29:48.000   18.461987116  -69.915352934   -18.4915   2  21   0.0426   0.0724   0.0736  -0.0191  -0.0176  -0.0250   0.00    1.0
2026/08/30 16:29:49.000   18.461987217  -69.915352850   -18.4849   2  21   0.0421   0.0719   0.0727  -0.0191  -0.0176  -0.0247   0.00    1.0
2026/08/30 16:29:50.000   18.461987311  -69.915352783   -18.4728   2  22   0.0417   0.0714   0.0718  -0.0190  -0.0177  -0.0244   0.00    1.0
2026/08/30 16:29:51.000   18.461987374  -69.915352778   -18.4564   2  20   0.0413   0.0709   0.0710  -0.0190  -0.0177  -0.0243   0.00    1.1
2026/08/30 16:29:52.000   18.461987442  -69.915352774   -18.4378   2  20   0.0409   0.0704   0.0702  -0.0190  -0.0177  -0.0242   0.00    1.1
2026/08/30 16:29:53.000   18.461987525  -69.915352760   -18.4244   2  19   0.0405   0.0699   0.0695  -0.0190  -0.0176  -0.0240   0.00    1.1
2026/08/30 16:29:54.000   18.461987610  -69.915352729   -18.4113   2  19   0.0401   0.0694   0.0688  -0.0190  -0.0176  -0.0238   0.00    1.1
2026/08/30 16:29:55.000   18.461987686  -69.915352666   -18.3965   2  21   0.0398   0.0690   0.0680  -0.0189  -0.0176  -0.0237   0.00    1.1
2026/08/30 16:29:56.000   18.461987783  -69.915352758   -18.3837   2  22   0.0394   0.0685   0.0674  -0.0189  -0.0175  -0.0237   0.00    1.1
2026/08/30 16:29:57.000   18.461987852  -69.915352844   -18.3683   2  21   0.0391   0.0681   0.0668  -0.0190  -0.0174  -0.0236   0.00    1.0
2026/08/30 16:29:58.000   18.461987921  -69.915352920   -18.3565   2  22   0.0388   0.0676   0.0662  -0.0190  -0.0173  -0.0236   0.00    1.0
2026/08/30 16:29:59.000   18.461987973  -69.915352874   -18.3421   2  23   0.0384   0.0672   0.0657  -0.0190  -0.0172  -0.0236   0.00    1.0
2026/08/30 16:30:00.000   18.461988025  -69.915352954   -18.3308   2  22   0.0381   0.0667   0.0651  -0.0190  -0.0170  -0.0235   0.00    1.0
2026/08/30 16:30:01.000   18.461988076  -69.915353035   -18.3194   2  21   0.0378   0.0663   0.0645  -0.0190  -0.0169  -0.0235   0.00    1.0
2026/08/30 16:30:02.000   18.461988115  -69.915352981   -18.3073   2  21   0.0375   0.0659   0.0639  -0.0189  -0.0168  -0.0234   0.00    1.0
2026/08/30 16:30:03.000   18.461988185  -69.915352957   -18.2989   2  20   0.0372   0.0654   0.0634  -0.0189  -0.0167  -0.0234   0.00    1.0
2026/08/30 16:30:04.000   18.461988249  -69.915353065   -18.2907   2  22   0.0369   0.0650   0.0628  -0.0189  -0.0166  -0.0233   0.00    1.0
