% program   : RTKLIB ver.EX 2.5.1
% inp file  : gnss/rinex/rover/rover_unicore_1s.obs
% inp file  : gnss/ppp/base_ventana.obs
% inp file  : gnss/rinex/base/base_completa.nav
% obs start : 2026/08/30 16:19:29.0 GPST (week2434  58769.0s)
% obs end   : 2026/08/30 16:21:35.0 GPST (week2434  58895.0s)
% pos mode  : Kinematic
% freqs     : L1+L2/E5b+L5
% solution  : Forward
% elev mask : 15.0 deg
% dynamics  : off
% tidecorr  :
% ionos opt : Broadcast
% tropo opt : Saastamoinen
% ephemeris : Broadcast
% navi sys  : GPS GLONASS Galileo QZSS SBAS
% amb res   : Fix and Hold
% amb glo   : ON
% val thres : 3.0
% antenna1  :                       ( 0.0000  0.0000  0.0000)
% antenna2  :                       ( 0.0000  0.0000  0.0000)
% ref pos   :  18.459649417  -69.916687222   -11.5840
%
% (lat/lon/height=WGS84/ellipsoidal,Q=1:fix,2:float,3:sbas,4:dgps,5:single,6:ppp,ns=# of satellites)
%  GPST                  latitude(deg) longitude(deg)  height(m)   Q  ns   sdn(m)   sde(m)   sdu(m)  sdne(m)  sdeu(m)  sdun(m) age(s)  ratio
2026/08/30 16:19:29.000   18.461985499  -69.915359657   -17.8931   2  20   0.7512   0.9391   1.7579   0.5126   0.4680  -0.2300   0.00    0.0
2026/08/30 16:19:30.000   18.461986573  -69.915358225   -18.0316   2  20   0.5573   0.7026   1.2935   0.3832   0.3440  -0.1427   0.00    0.0
2026/08/30 16:19:31.000   18.461983985  -69.915361646   -17.4975   2  21   0.4523   0.5711   1.0564   0.2987   0.3209   0.0702   0.00    0.0
2026/08/30 16:19:32.000   18.461984697  -69.915360724   -17.4404   2  20   0.3924   0.4966   0.9220   0.2526   0.2827   0.1094   0.00    0.0
2026/08/30 16:19:33.000   18.461984949  -69.915360410   -17.3746   2  20   0.3518   0.4460   0.8281   0.2234   0.2543   0.1162   0.00    0.0
2026/08/30 16:19:34.000   18.461985155  -69.915360102   -17.2880   2  20   0.3212   0.4062   0.7566   0.2007   0.2294   0.1138   0.00    0.0
2026/08/30 16:19:35.000   18.461985207  -69.915360113   -17.2265   2  20   0.2976   0.3770   0.7010   0.1846   0.2128   0.1122   0.00    1.4
2026/08/30 16:19:36.000   18.461984920  -69.915360538   -17.1626   2  20   0.2778   0.3522   0.6553   0.1703   0.2003   0.1111   0.00    1.1
2026/08/30 16:19:37.000   18.461985546  -69.915359621   -17.2317   2  19   0.2627   0.3342   0.6193   0.1620   0.1838   0.1025   0.00    1.8
2026/08/30 16:19:38.000   18.461986307  -69.915359530   -17.1535   2  19   0.2499   0.3188   0.5880   0.1559   0.1701   0.0932   0.00    1.4
2026/08/30 16:19:39.000   18.461986647  -69.915358921   -17.1945   2  17   0.2389   0.3071   0.5620   0.1507   0.1604   0.0879   0.00    1.9
2026/08/30 16:19:40.000   18.461986874  -69.915358639   -17.2629   2  18   0.2290   0.2948   0.5377   0.1450   0.1486   0.0817   0.00    1.5
2026/08/30 16:19:41.000   18.461987068  -69.915358380   -17.2990   2  18   0.2202   0.2843   0.5158   0.1399   0.1388   0.0768   0.00    1.8
2026/08/30 16:19:42.000   18.461986186  -69.915359557   -17.2985   2  19   0.2106   0.2725   0.4958   0.1318   0.1328   0.0761   0.00    1.1
2026/08/30 16:19:43.000   18.461985582  -69.915360426   -17.2812   2  19   0.2021   0.2621   0.4777   0.1251   0.1277   0.0756   0.00    1.1
2026/08/30 16:19:44.000   18.461985144  -69.915361233   -17.2738   2  19   0.1945   0.2528   0.4609   0.1190   0.1229   0.0753   0.00    1.0
2026/08/30 16:19:45.000   18.461984685  -69.915362009   -17.2654   2  19   0.1880   0.2456   0.4475   0.1147   0.1233   0.0779   0.00    1.0
2026/08/30 16:19:46.000   18.461984109  -69.915362941   -17.1986   2  20   0.1818   0.2385   0.4339   0.1101   0.1245   0.0811   0.00    1.0
2026/08/30 16:19:47.000   18.461983805  -69.915363506   -17.2176   2  19   0.1763   0.2324   0.4219   0.1066   0.1236   0.0820   0.00    1.0
2026/08/30 16:19:48.000   18.461983561  -69.915363941   -17.2450   2  19   0.1712   0.2268   0.4104   0.1033   0.1223   0.0824   0.00    1.0
2026/08/30 16:19:49.000   18.461983479  -69.915364159   -17.2551   2  18   0.1665   0.2215   0.3996   0.1003   0.1205   0.0824   0.00    1.0
2026/08/30 16:19:50.000   18.461983435  -69.915364238   -17.2542   2  19   0.1618   0.2155   0.3876   0.0965   0.1155   0.0804   0.00    1.0
2026/08/30 16:19:51.000   18.461983845  -69.915363739   -17.3023   2  18   0.1580   0.2106   0.3766   0.0941   0.1099   0.0775   0.00    1.1
2026/08/30 16:19:52.000   18.461983862  -69.915363901   -17.3263   2  19   0.1538   0.2054   0.3660   0.0908   0.1058   0.0757   0.00    1.1
2026/08/30 16:19:53.000   18.461983863  -69.915364034   -17.3577   2  18   0.1501   0.2013   0.3571   0.0883   0.1041   0.0754   0.00    1.0
2026/08/30 16:19:54.000   18.461984250  -69.915363526   -17.3716   2  18   0.1469   0.1973   0.3475   0.0864   0.0995   0.0731   0.00    1.1
2026/08/30 16:19:55.000   18.461984697  -69.915363145   -17.4277   2  18   0.1438   0.1934   0.3384   0.0844   0.0950   0.0709   0.00    1.1
2026/08/30 16:19:56.000   18.461985050  -69.915362791   -17.4737   2  18   0.1408   0.1898   0.3298   0.0827   0.0910   0.0690   0.00    1.2
2026/08/30 16:19:57.000   18.461985318  -69.915362525   -17.5377   2  18   0.1380   0.1864   0.3214   0.0810   0.0873   0.0673   0.00    1.2
2026/08/30 16:19:58.000   18.461985557  -69.915362275   -17.5991   2  18   0.1353   0.1832   0.3135   0.0794   0.0837   0.0657   0.00    1.3
2026/08/30 16:19:59.000   18.461985518  -69.915362462   -17.6442   2  19   0.1323   0.1796   0.3057   0.0769   0.0809   0.0646   0.00    1.1
2026/08/30 16:20:00.000   18.461985502  -69.915362623   -17.6698   2  19   0.1294   0.1761   0.2983   0.0744   0.0781   0.0636   0.00    1.1
2026/08/30 16:20:01.000   18.461985505  -69.915362707   -17.6997   2  19   0.1268   0.1728   0.2911   0.0722   0.0755   0.0627   0.00    1.1
2026/08/30 16:20:02.000   18.461985440  -69.915363112   -17.7121   2  20   0.1242   0.1695   0.2842   0.0699   0.0733   0.0618   0.00    1.0
2026/08/30 16:20:03.000   18.461985427  -69.915363433   -17.7308   2  19   0.1217   0.1667   0.2781   0.0681   0.0724   0.0617   0.00    1.0
2026/08/30 16:20:04.000   18.461985420  -69.915363637   -17.7362   2  19   0.1194   0.1641   0.2721   0.0664   0.0715   0.0614   0.00    1.0
2026/08/30 16:20:05.000   18.461985339  -69.915363879   -17.7587   2  19   0.1172   0.1616   0.2662   0.0648   0.0703   0.0611   0.00    1.2
2026/08/30 16:20:06.000   18.461985277  -69.915364178   -17.8037   2  19   0.1151   0.1592   0.2606   0.0632   0.0692   0.0606   0.00    1.1
2026/08/30 16:20:07.000   18.461985160  -69.915364357   -17.8323   2  20   0.1129   0.1567   0.2548   0.0618   0.0685   0.0599   0.00    1.0
2026/08/30 16:20:08.000   18.461985097  -69.915364354   -17.8614   2  20   0.1108   0.1544   0.2492   0.0606   0.0676   0.0590   0.00    1.0
2026/08/30 16:20:09.000   18.461984976  -69.915364700   -17.8849   2  20   0.1088   0.1522   0.2438   0.0592   0.0666   0.0583   0.00    1.0
2026/08/30 16:20:10.000   18.461984885  -69.915364979   -17.9123   2  20   0.1069   0.1499   0.2386   0.0579   0.0657   0.0574   0.00    1.0
2026/08/30 16:20:11.000   18.461984952  -69.915365329   -17.8995   2  19   0.1052   0.1482   0.2354   0.0570   0.0660   0.0583   0.00    1.0
2026/08/30 16:20:12.000   18.461984981  -69.915365607   -17.9017   2  21   0.1035   0.1461   0.2312   0.0560   0.0655   0.0582   0.00    1.0
2026/08/30 16:20:13.000   18.461985097  -69.915365563   -17.8668   2  20   0.1018   0.1441   0.2270   0.0549   0.0651   0.0579   0.00    1.0
2026/08/30 16:20:14.000   18.461984844  -69.915365987   -17.8713   2  19   0.1002   0.1423   0.2229   0.0539   0.0645   0.0576   0.00    1.0
2026/08/30 16:20:15.000   18.461984812  -69.915366124   -17.8911   2  19   0.0986   0.1406   0.2190   0.0529   0.0638   0.0574   0.00    1.1
2026/08/30 16:20:16.000   18.461984839  -69.915366205   -17.9252   2  20   0.0971   0.1389   0.2151   0.0520   0.0630   0.0571   0.00    1.0
2026/08/30 16:20:17.000   18.461984869  -69.915366303   -17.9349   2  20   0.0956   0.1372   0.2114   0.0511   0.0624   0.0568   0.00    1.0
2026/08/30 16:20:18.000   18.461984880  -69.915366403   -17.9556   2  20   0.0941   0.1355   0.2077   0.0501   0.0616   0.0565   0.00    1.0
2026/08/30 16:20:19.000   18.461984914  -69.915366492   -17.9798   2  20   0.0928   0.1340   0.2041   0.0493   0.0608   0.0561   0.00    1.1
2026/08/30 16:20:20.000   18.461984954  -69.915366620   -18.0022   2  20   0.0914   0.1324   0.2006   0.0483   0.0601   0.0557   0.00    1.1
2026/08/30 16:20:21.000   18.461984954  -69.915366783   -18.0286   2  20   0.0900   0.1308   0.1972   0.0474   0.0592   0.0554   0.00    1.1
2026/08/30 16:20:22.000   18.461984964  -69.915366938   -18.0560   2  20   0.0887   0.1294   0.1938   0.0465   0.0585   0.0549   0.00    1.1
2026/08/30 16:20:23.000   18.461984942  -69.915367092   -18.0890   2  20   0.0874   0.1278   0.1905   0.0456   0.0575   0.0545   0.00    1.1
2026/08/30 16:20:24.000   18.461984934  -69.915367319   -18.1360   2  20   0.0861   0.1263   0.1873   0.0447   0.0564   0.0541   0.00    1.1
2026/08/30 16:20:25.000   18.461984940  -69.915367514   -18.1728   2  20   0.0849   0.1249   0.1841   0.0438   0.0555   0.0536   0.00    1.0
2026/08/30 16:20:26.000   18.461984947  -69.915367629   -18.2112   2  19   0.0837   0.1235   0.1811   0.0431   0.0547   0.0531   0.00    1.0
2026/08/30 16:20:27.000   18.461984976  -69.915367754   -18.2492   2  20   0.0826   0.1220   0.1780   0.0421   0.0537   0.0526   0.00    1.0
2026/08/30 16:20:28.000   18.461984998  -69.915367851   -18.2756   2  20   0.0814   0.1206   0.1751   0.0412   0.0528   0.0521   0.00    1.0
2026/08/30 16:20:29.000   18.461984995  -69.915368002   -18.3091   2  20   0.0804   0.1193   0.1722   0.0404   0.0519   0.0516   0.00    1.0
2026/08/30 16:20:30.000   18.461984980  -69.915368214   -18.3238   2  21   0.0791   0.1178   0.1692   0.0395   0.0505   0.0509   0.00    1.0
2026/08/30 16:20:31.000   18.461984899  -69.915368460   -18.3479   2  19   0.0782   0.1165   0.1666   0.0385   0.0495   0.0504   0.00    1.0
2026/08/30 16:20:32.000   18.461984963  -69.915368566   -18.3769   2  22   0.0771   0.1150   0.1637   0.0375   0.0482   0.0498   0.00    1.0
2026/08/30 16:20:33.000   18.461984808  -69.915369009   -18.3847   2  22   0.0761   0.1135   0.1609   0.0365   0.0470   0.0491   0.00    1.0
2026/08/30 16:20:34.000   18.461984753  -69.915369191   -18.4033   2  20   0.0751   0.1123   0.1583   0.0356   0.0461   0.0486   0.00    1.0
2026/08/30 16:20:35.000   18.461984770  -69.915369308   -18.4404   2  18   0.0741   0.1112   0.1559   0.0350   0.0452   0.0481   0.00    1.2
2026/08/30 16:20:36.000   18.461984741  -69.915369505   -18.4606   2  20   0.0731   0.1100   0.1533   0.0339   0.0438   0.0477   0.00    1.0
2026/08/30 16:20:37.000   18.461984863  -69.915369541   -18.4927   2  21   0.0723   0.1087   0.1509   0.0330   0.0426   0.0472   0.00    1.0
2026/08/30 16:20:38.000   18.461984752  -69.915369891   -18.4973   2  20   0.0714   0.1076   0.1485   0.0321   0.0413   0.0466   0.00    1.1
2026/08/30 16:20:39.000   18.461984865  -69.915369974   -18.5411   2  21   0.0704   0.1063   0.1461   0.0312   0.0402   0.0461   0.00    1.0
2026/08/30 16:20:40.000   18.461984836  -69.915370202   -18.5469   2  21   0.0696   0.1052   0.1438   0.0303   0.0390   0.0454   0.00    1.0
2026/08/30 16:20:41.000   18.461984828  -69.915370322   -18.5589   2  22   0.0686   0.1040   0.1416   0.0294   0.0382   0.0450   0.00    1.0
2026/08/30 16:20:42.000   18.461984860  -69.915370439   -18.5624   2  21   0.0679   0.1030   0.1394   0.0284   0.0373   0.0446   0.00    1.0
2026/08/30 16:20:43.000   18.461984961  -69.915370385   -18.5695   2  20   0.0671   0.1019   0.1373   0.0277   0.0361   0.0440   0.00    1.0
2026/08/30 16:20:44.000   18.461984989  -69.915370491   -18.5627   2  22   0.0662   0.1008   0.1351   0.0269   0.0352   0.0436   0.00    1.0
2026/08/30 16:20:45.000   18.461985067  -69.915370484   -18.5549   2  22   0.0653   0.0998   0.1330   0.0260   0.0342   0.0431   0.00    1.0
2026/08/30 16:20:46.000   18.461985118  -69.915370435   -18.5307   2  21   0.0644   0.0987   0.1310   0.0252   0.0332   0.0426   0.00    1.0
2026/08/30 16:20:47.000   18.461985191  -69.915370281   -18.4995   2  20   0.0637   0.0978   0.1290   0.0243   0.0323   0.0421   0.00    1.0
2026/08/30 16:20:48.000   18.461985273  -69.915370194   -18.4766   2  21   0.0630   0.0968   0.1271   0.0235   0.0314   0.0416   0.00    1.0
2026/08/30 16:20:49.000   18.461985378  -69.915370094   -18.4506   2  20   0.0622   0.0958   0.1252   0.0228   0.0304   0.0411   0.00    1.0
2026/08/30 16:20:50.000   18.461985520  -69.915369897   -18.4121   2  19   0.0616   0.0950   0.1233   0.0221   0.0295   0.0406   0.00    1.0
2026/08/30 16:20:51.000   18.461985704  -69.915369690   -18.3963   2  20   0.0608   0.0941   0.1215   0.0214   0.0287   0.0401   0.00    1.0
2026/08/30 16:20:52.000   18.461985872  -69.915369486   -18.3841   2  20   0.0601   0.0932   0.1197   0.0206   0.0278   0.0396   0.00    1.0
2026/08/30 16:20:53.000   18.461985961  -69.915369367   -18.3450   2  21   0.0593   0.0923   0.1179   0.0202   0.0270   0.0391   0.00    1.0
2026/08/30 16:20:54.000   18.461986087  -69.915369289   -18.3388   2  21   0.0587   0.0914   0.1162   0.0195   0.0263   0.0386   0.00    1.0
2026/08/30 16:20:55.000   18.461986180  -69.915369106   -18.3183   2  20   0.0579   0.0906   0.1145   0.0188   0.0255   0.0382   0.00    1.0
2026/08/30 16:20:56.000   18.461986296  -69.915368999   -18.2895   2  21   0.0574   0.0898   0.1129   0.0183   0.0247   0.0377   0.00    1.0
2026/08/30 16:20:57.000   18.461986377  -69.915368920   -18.2698   2  21   0.0567   0.0890   0.1113   0.0177   0.0240   0.0371   0.00    1.0
2026/08/30 16:20:58.000   18.461986527  -69.915368796   -18.2751   2  22   0.0560   0.0882   0.1097   0.0171   0.0233   0.0367   0.00    1.0
2026/08/30 16:20:59.000   18.461986672  -69.915368666   -18.2797   2  20   0.0553   0.0873   0.1081   0.0165   0.0227   0.0362   0.00    1.0
2026/08/30 16:21:00.000   18.461986750  -69.915368522   -18.2720   2  20   0.0547   0.0866   0.1066   0.0159   0.0220   0.0358   0.00    1.0
2026/08/30 16:21:01.000   18.461986886  -69.915368361   -18.2598   2  20   0.0541   0.0859   0.1051   0.0154   0.0211   0.0353   0.00    1.0
2026/08/30 16:21:02.000   18.461986989  -69.915368203   -18.2446   2  20   0.0536   0.0852   0.1037   0.0148   0.0206   0.0349   0.00    1.0
2026/08/30 16:21:03.000   18.461987059  -69.915368068   -18.2339   2  20   0.0529   0.0844   0.1023   0.0142   0.0198   0.0346   0.00    1.0
2026/08/30 16:21:04.000   18.461987156  -69.915367933   -18.2300   2  19   0.0523   0.0837   0.1009   0.0135   0.0192   0.0341   0.00    1.3
2026/08/30 16:21:05.000   18.461987211  -69.915367865   -18.2386   2  18   0.0517   0.0831   0.0996   0.0132   0.0186   0.0338   0.00    1.0
2026/08/30 16:21:06.000   18.461987299  -69.915367652   -18.2158   2  19   0.0512   0.0824   0.0982   0.0126   0.0179   0.0334   0.00    1.0
2026/08/30 16:21:07.000   18.461987313  -69.915367565   -18.2243   2  18   0.0506   0.0818   0.0970   0.0120   0.0176   0.0330   0.00    1.0
2026/08/30 16:21:08.000   18.461987368  -69.915367387   -18.2179   2  20   0.0501   0.0811   0.0957   0.0115   0.0169   0.0326   0.00    1.0
2026/08/30 16:21:09.000   18.461987431  -69.915367282   -18.2113   2  18   0.0496   0.0806   0.0945   0.0110   0.0166   0.0322   0.00    1.0
2026/08/30 16:21:10.000   18.461987514  -69.915367096   -18.2006   2  18   0.0491   0.0800   0.0933   0.0104   0.0162   0.0319   0.00    1.0
2026/08/30 16:21:11.000   18.461987578  -69.915366937   -18.2036   2  18   0.0487   0.0794   0.0921   0.0097   0.0156   0.0315   0.00    1.0
2026/08/30 16:21:12.000   18.461987649  -69.915366743   -18.1926   2  20   0.0479   0.0788   0.0909   0.0095   0.0151   0.0311   0.00    1.0
2026/08/30 16:21:13.000   18.461987686  -69.915366611   -18.1808   2  21   0.0476   0.0782   0.0898   0.0086   0.0148   0.0308   0.00    1.0
2026/08/30 16:21:14.000   18.461987763  -69.915366488   -18.1858   2  21   0.0471   0.0777   0.0887   0.0076   0.0144   0.0305   0.00    1.0
2026/08/30 16:21:15.000   18.461987790  -69.915366406   -18.1955   2  20   0.0465   0.0771   0.0876   0.0075   0.0137   0.0301   0.00    1.0
2026/08/30 16:21:16.000   18.461987839  -69.915366310   -18.1959   2  21   0.0460   0.0765   0.0865   0.0069   0.0136   0.0298   0.00    1.0
2026/08/30 16:21:17.000   18.461987886  -69.915366153   -18.2000   2  18   0.0456   0.0760   0.0855   0.0063   0.0129   0.0295   0.00    1.0
2026/08/30 16:21:18.000   18.461987957  -69.915365952   -18.2060   2  19   0.0453   0.0754   0.0844   0.0053   0.0124   0.0291   0.00    1.0
2026/08/30 16:21:19.000   18.461988049  -69.915365873   -18.2091   2  19   0.0447   0.0749   0.0834   0.0056   0.0118   0.0288   0.00    1.0
2026/08/30 16:21:20.000   18.461988132  -69.915365739   -18.2135   2  17   0.0444   0.0744   0.0825   0.0035   0.0117   0.0284   0.00    1.1
2026/08/30 16:21:21.000   18.461988206  -69.915365658   -18.2159   2  18   0.0438   0.0740   0.0815   0.0030   0.0111   0.0281   0.00    1.0
2026/08/30 16:21:22.000   18.461988275  -69.915365536   -18.2176   2  18   0.0434   0.0734   0.0805  -0.0019   0.0105   0.0280   0.00    1.0
2026/08/30 16:21:23.000   18.461988345  -69.915365446   -18.2283   2  18   0.0431   0.0730   0.0795  -0.0040   0.0099   0.0277   0.00    1.0
2026/08/30 16:21:24.000   18.461988410  -69.915365323   -18.2310   2  17   0.0426   0.0725   0.0787  -0.0040   0.0092   0.0273   0.00    1.1
2026/08/30 16:21:25.000   18.461988475  -69.915365191   -18.2378   2  18   0.0422   0.0719   0.0777  -0.0054   0.0088   0.0271   0.00    1.0
2026/08/30 16:21:26.000   18.461988531  -69.915365043   -18.2362   2  19   0.0418   0.0715   0.0769  -0.0066   0.0083   0.0268   0.00    1.0
2026/08/30 16:21:27.000   18.461988595  -69.915364870   -18.2382   2  19   0.0414   0.0710   0.0760  -0.0066   0.0080   0.0265   0.00    1.0
2026/08/30 16:21:28.000   18.461988674  -69.915364693   -18.2436   2  17   0.0409   0.0706   0.0752  -0.0069   0.0059   0.0263   0.00    1.0
2026/08/30 16:21:29.000   18.461988719  -69.915364534   -18.2411   2  19   0.0407   0.0701   0.0744  -0.0079   0.0050   0.0261   0.00    1.1
2026/08/30 16:21:30.000   18.461988770  -69.915364363   -18.2430   2  19   0.0403   0.0696   0.0737  -0.0084   0.0034   0.0259   0.00    1.0
2026/08/30 16:21:31.000   18.461988794  -69.915364219   -18.2569   2  18   0.0398   0.0692   0.0729  -0.0089  -0.0012   0.0258   0.00    1.1
2026/08/30 16:21:32.000   18.461988807  -69.915364027   -18.2582   2  18   0.0397   0.0688   0.0722  -0.0094  -0.0023   0.0256   0.00    1.1
2026/08/30 16:21:33.000   18.461988855  -69.915363846   -18.2607   2  18   0.0394   0.0684   0.0715  -0.0097  -0.0049   0.0255   0.00    1.1
2026/08/30 16:21:34.000   18.461988886  -69.915363692   -18.2647   2  18   0.0391   0.0679   0.0707  -0.0099  -0.0059   0.0252   0.00    1.8
2026/08/30 16:21:35.000   18.461988915  -69.915363567   -18.2689   2  18   0.0387   0.0675   0.0700  -0.0106  -0.0066   0.0251   0.00    1.9
