% program   : RTKLIB ver.EX 2.5.1
% inp file  : gnss/rinex/rover/rover_unicore_1s.obs
% inp file  : gnss/ppp/base_ventana.obs
% inp file  : gnss/rinex/base/base_completa.nav
% obs start : 2026/08/30 16:19:29.0 GPST (week2434  58769.0s)
% obs end   : 2026/08/30 16:21:35.0 GPST (week2434  58895.0s)
% pos mode  : Static
% freqs     : L1+L2/E5b+L5
% solution  : Forward
% elev mask : 15.0 deg
% dynamics  : off
% tidecorr  :
% ionos opt : Broadcast
% tropo opt : Saastamoinen
% ephemeris : Broadcast
% navi sys  : GPS GLONASS Galileo QZSS SBAS
% amb res   : Fix and Hold
% amb glo   : ON
% val thres : 3.0
% antenna1  :                       ( 0.0000  0.0000  0.0000)
% antenna2  :                       ( 0.0000  0.0000  0.0000)
% ref pos   :  18.459649417  -69.916687222   -11.5840
%
% (lat/lon/height=WGS84/ellipsoidal,Q=1:fix,2:float,3:sbas,4:dgps,5:single,6:ppp,ns=# of satellites)
%  GPST                  latitude(deg) longitude(deg)  height(m)   Q  ns   sdn(m)   sde(m)   sdu(m)  sdne(m)  sdeu(m)  sdun(m) age(s)  ratio
2026/08/30 16:19:29.000   18.461985499  -69.915359657   -17.8931   2  20   0.7512   0.9391   1.7579   0.5126   0.4680  -0.2300   0.00    0.0
2026/08/30 16:19:30.000   18.461986562  -69.915358256   -18.0504   2  20   0.5573   0.7027   1.2942   0.3832   0.3438  -0.1439   0.00    0.0
2026/08/30 16:19:31.000   18.461984020  -69.915361642   -17.5046   2  21   0.4521   0.5711   1.0563   0.2985   0.3199   0.0656   0.00    0.0
2026/08/30 16:19:32.000   18.461984692  -69.915360757   -17.4605   2  20   0.3921   0.4965   0.9213   0.2522   0.2813   0.1058   0.00    0.0
2026/08/30 16:19:33.000   18.461984949  -69.915360450   -17.3877   2  20   0.3512   0.4457   0.8267   0.2227   0.2522   0.1119   0.00    0.0
2026/08/30 16:19:34.000   18.461985144  -69.915360195   -17.3041   2  20   0.3207   0.4077   0.7552   0.2011   0.2298   0.1109   0.00    0.0
2026/08/30 16:19:35.000   18.461985148  -69.915360149   -17.2326   2  20   0.2967   0.3779   0.6984   0.1844   0.2117   0.1074   0.00    1.5
2026/08/30 16:19:36.000   18.461985182  -69.915360075   -17.1803   2  20   0.2772   0.3537   0.6517   0.1709   0.1966   0.1029   0.00    1.6
2026/08/30 16:19:37.000   18.461985792  -69.915359167   -17.2392   2  19   0.2617   0.3351   0.6144   0.1620   0.1787   0.0923   0.00    1.7
2026/08/30 16:19:38.000   18.461986444  -69.915359119   -17.1731   2  19   0.2485   0.3194   0.5819   0.1552   0.1636   0.0804   0.00    1.4
2026/08/30 16:19:39.000   18.461986729  -69.915358573   -17.2079   2  17   0.2371   0.3072   0.5546   0.1493   0.1524   0.0728   0.00    1.7
2026/08/30 16:19:40.000   18.461986865  -69.915358363   -17.2825   2  18   0.2268   0.2946   0.5291   0.1431   0.1391   0.0640   0.00    1.4
2026/08/30 16:19:41.000   18.461986979  -69.915358162   -17.3295   2  18   0.2176   0.2837   0.5061   0.1375   0.1278   0.0562   0.00    1.7
2026/08/30 16:19:42.000   18.461986073  -69.915359352   -17.3141   2  19   0.2075   0.2717   0.4846   0.1288   0.1205   0.0538   0.00    1.0
2026/08/30 16:19:43.000   18.461985475  -69.915360172   -17.2777   2  19   0.1987   0.2611   0.4648   0.1215   0.1139   0.0514   0.00    1.1
2026/08/30 16:19:44.000   18.461985165  -69.915360836   -17.2431   2  19   0.1908   0.2517   0.4466   0.1150   0.1077   0.0489   0.00    1.1
2026/08/30 16:19:45.000   18.461984706  -69.915361619   -17.2292   2  19   0.1838   0.2441   0.4314   0.1101   0.1067   0.0512   0.00    1.1
2026/08/30 16:19:46.000   18.461984212  -69.915362501   -17.1455   2  20   0.1772   0.2367   0.4160   0.1049   0.1071   0.0545   0.00    1.0
2026/08/30 16:19:47.000   18.461983988  -69.915362969   -17.1393   2  19   0.1714   0.2303   0.4024   0.1008   0.1048   0.0544   0.00    1.0
2026/08/30 16:19:48.000   18.461983864  -69.915363334   -17.1386   2  19   0.1659   0.2244   0.3895   0.0970   0.1023   0.0537   0.00    1.0
2026/08/30 16:19:49.000   18.461983902  -69.915363463   -17.1059   2  18   0.1609   0.2189   0.3772   0.0935   0.0993   0.0525   0.00    1.0
2026/08/30 16:19:50.000   18.461983918  -69.915363551   -17.1192   2  19   0.1558   0.2127   0.3642   0.0892   0.0932   0.0485   0.00    1.0
2026/08/30 16:19:51.000   18.461984366  -69.915363001   -17.1434   2  18   0.1517   0.2076   0.3523   0.0865   0.0861   0.0433   0.00    1.1
2026/08/30 16:19:52.000   18.461984479  -69.915363041   -17.1102   2  19   0.1473   0.2023   0.3409   0.0828   0.0810   0.0403   0.00    1.2
2026/08/30 16:19:53.000   18.461984606  -69.915363079   -17.0964   2  18   0.1433   0.1979   0.3308   0.0799   0.0782   0.0389   0.00    1.0
2026/08/30 16:19:54.000   18.461985072  -69.915362507   -17.0822   2  18   0.1397   0.1938   0.3206   0.0776   0.0722   0.0343   0.00    1.1
2026/08/30 16:19:55.000   18.461985595  -69.915362007   -17.0942   2  18   0.1364   0.1898   0.3109   0.0754   0.0662   0.0297   0.00    1.1
2026/08/30 16:19:56.000   18.461986042  -69.915361586   -17.1126   2  18   0.1331   0.1862   0.3017   0.0733   0.0607   0.0252   0.00    1.3
2026/08/30 16:19:57.000   18.461986419  -69.915361268   -17.1549   2  18   0.1300   0.1827   0.2929   0.0714   0.0553   0.0205   0.00    1.3
2026/08/30 16:19:58.000   18.461986729  -69.915360997   -17.2072   2  18   0.1271   0.1794   0.2845   0.0694   0.0501   0.0153   0.00    1.4
2026/08/30 16:19:59.000   18.461986777  -69.915361146   -17.2419   2  19   0.1239   0.1757   0.2764   0.0666   0.0460   0.0119   0.00    1.1
2026/08/30 16:20:00.000   18.461986819  -69.915361289   -17.2604   2  19   0.1208   0.1722   0.2686   0.0640   0.0420   0.0074   0.00    1.1
2026/08/30 16:20:01.000   18.461986845  -69.915361388   -17.2989   2  19   0.1180   0.1689   0.2611   0.0615   0.0380  -0.0043   0.00    1.1
2026/08/30 16:20:02.000   18.461986845  -69.915361738   -17.3068   2  20   0.1152   0.1655   0.2540   0.0589   0.0346  -0.0083   0.00    1.0
2026/08/30 16:20:03.000   18.461986893  -69.915362020   -17.3154   2  19   0.1125   0.1627   0.2473   0.0568   0.0328  -0.0088   0.00    1.0
2026/08/30 16:20:04.000   18.461986995  -69.915362163   -17.3101   2  19   0.1100   0.1600   0.2410   0.0548   0.0308  -0.0096   0.00    1.0
2026/08/30 16:20:05.000   18.461987071  -69.915362152   -17.3385   2  19   0.1076   0.1575   0.2348   0.0529   0.0285  -0.0106   0.00    1.3
2026/08/30 16:20:06.000   18.461987131  -69.915362418   -17.3796   2  19   0.1053   0.1549   0.2289   0.0510   0.0263  -0.0113   0.00    1.1
2026/08/30 16:20:07.000   18.461987206  -69.915362314   -17.4148   2  20   0.1030   0.1524   0.2230   0.0494   0.0248  -0.0132   0.00    1.0
2026/08/30 16:20:08.000   18.461987264  -69.915362256   -17.4339   2  20   0.1008   0.1500   0.2174   0.0479   0.0232  -0.0146   0.00    1.0
2026/08/30 16:20:09.000   18.461987301  -69.915362507   -17.4477   2  20   0.0987   0.1477   0.2119   0.0462   0.0215  -0.0155   0.00    1.0
2026/08/30 16:20:10.000   18.461987342  -69.915362723   -17.4689   2  20   0.0966   0.1454   0.2067   0.0446   0.0197  -0.0163   0.00    1.0
2026/08/30 16:20:11.000   18.461987510  -69.915362999   -17.4545   2  19   0.0947   0.1433   0.2018   0.0431   0.0167  -0.0168   0.00    1.0
2026/08/30 16:20:12.000   18.461987635  -69.915363166   -17.4680   2  21   0.0928   0.1411   0.1969   0.0417   0.0148  -0.0175   0.00    1.0
2026/08/30 16:20:13.000   18.461987788  -69.915363273   -17.4849   2  20   0.0909   0.1391   0.1922   0.0403   0.0121  -0.0181   0.00    1.0
2026/08/30 16:20:14.000   18.461987808  -69.915363329   -17.5070   2  19   0.0891   0.1372   0.1877   0.0389   0.0081  -0.0186   0.00    1.0
2026/08/30 16:20:15.000   18.461987850  -69.915363443   -17.5455   2  19   0.0874   0.1353   0.1833   0.0376  -0.0031  -0.0190   0.00    1.1
2026/08/30 16:20:16.000   18.461987936  -69.915363555   -17.5734   2  20   0.0858   0.1335   0.1791   0.0362  -0.0088  -0.0193   0.00    1.0
2026/08/30 16:20:17.000   18.461988056  -69.915363565   -17.5846   2  20   0.0841   0.1317   0.1751   0.0349  -0.0119  -0.0195   0.00    1.0
2026/08/30 16:20:18.000   18.461988150  -69.915363614   -17.6069   2  20   0.0826   0.1300   0.1712   0.0336  -0.0143  -0.0197   0.00    1.0
2026/08/30 16:20:19.000   18.461988243  -69.915363641   -17.6267   2  20   0.0810   0.1283   0.1674   0.0324  -0.0162  -0.0199   0.00    1.1
2026/08/30 16:20:20.000   18.461988312  -69.915363704   -17.6536   2  20   0.0796   0.1266   0.1637   0.0311  -0.0178  -0.0200   0.00    1.1
2026/08/30 16:20:21.000   18.461988356  -69.915363820   -17.6767   2  20   0.0781   0.1250   0.1602   0.0299  -0.0191  -0.0200   0.00    1.1
2026/08/30 16:20:22.000   18.461988385  -69.915363912   -17.6969   2  20   0.0767   0.1235   0.1568   0.0287  -0.0203  -0.0200   0.00    1.1
2026/08/30 16:20:23.000   18.461988404  -69.915364039   -17.7266   2  20   0.0754   0.1219   0.1534   0.0274  -0.0216  -0.0201   0.00    1.1
2026/08/30 16:20:24.000   18.461988449  -69.915364203   -17.7675   2  20   0.0740   0.1204   0.1502   0.0262  -0.0228  -0.0200   0.00    1.1
2026/08/30 16:20:25.000   18.461988471  -69.915364352   -17.7980   2  20   0.0728   0.1189   0.1471   0.0251  -0.0236  -0.0200   0.00    1.0
2026/08/30 16:20:26.000   18.461988498  -69.915364404   -17.8311   2  19   0.0715   0.1175   0.1442   0.0240  -0.0243  -0.0199   0.00    1.0
2026/08/30 16:20:27.000   18.461988552  -69.915364455   -17.8607   2  20   0.0703   0.1160   0.1412   0.0227  -0.0250  -0.0198   0.00    1.0
2026/08/30 16:20:28.000   18.461988593  -69.915364506   -17.8791   2  20   0.0691   0.1146   0.1384   0.0215  -0.0256  -0.0196   0.00    1.0
2026/08/30 16:20:29.000   18.461988627  -69.915364601   -17.8977   2  20   0.0680   0.1133   0.1357   0.0204  -0.0261  -0.0195   0.00    1.0
2026/08/30 16:20:30.000   18.461988641  -69.915364739   -17.8918   2  21   0.0669   0.1118   0.1330   0.0191  -0.0269  -0.0193   0.00    1.0
2026/08/30 16:20:31.000   18.461988661  -69.915364950   -17.8971   2  19   0.0658   0.1105   0.1305   0.0178  -0.0275  -0.0190   0.00    1.0
2026/08/30 16:20:32.000   18.461988733  -69.915365231   -17.9111   2  22   0.0647   0.1091   0.1280   0.0164  -0.0280  -0.0188   0.00    1.0
2026/08/30 16:20:33.000   18.461988734  -69.915365437   -17.9256   2  22   0.0637   0.1077   0.1255   0.0151  -0.0284  -0.0187   0.00    1.0
2026/08/30 16:20:34.000   18.461988724  -69.915365578   -17.9324   2  20   0.0627   0.1065   0.1232   0.0138  -0.0287  -0.0184   0.00    1.0
2026/08/30 16:20:35.000   18.461988767  -69.915365637   -17.9586   2  18   0.0617   0.1054   0.1210   0.0125  -0.0291  -0.0182   0.00    1.2
2026/08/30 16:20:36.000   18.461988778  -69.915365854   -17.9742   2  20   0.0608   0.1042   0.1188   0.0109  -0.0296  -0.0179   0.00    1.0
2026/08/30 16:20:37.000   18.461988876  -69.915366079   -17.9804   2  21   0.0599   0.1030   0.1166   0.0090  -0.0299  -0.0176   0.00    1.0
2026/08/30 16:20:38.000   18.461988864  -69.915366216   -18.0040   2  20   0.0590   0.1019   0.1145   0.0070  -0.0303  -0.0174   0.00    1.0
2026/08/30 16:20:39.000   18.461988940  -69.915366406   -18.0308   2  21   0.0581   0.1008   0.1125   0.0041  -0.0305  -0.0171   0.00    1.0
2026/08/30 16:20:40.000   18.461988963  -69.915366500   -18.0454   2  21   0.0572   0.0997   0.1106  -0.0036  -0.0308  -0.0168   0.00    1.0
2026/08/30 16:20:41.000   18.461988948  -69.915366623   -18.0552   2  22   0.0564   0.0986   0.1086  -0.0065  -0.0309  -0.0165   0.00    1.0
2026/08/30 16:20:42.000   18.461988962  -69.915366774   -18.0675   2  21   0.0556   0.0976   0.1068  -0.0083  -0.0309  -0.0161   0.00    1.0
2026/08/30 16:20:43.000   18.461989011  -69.915366771   -18.0890   2  20   0.0548   0.0966   0.1050  -0.0096  -0.0311  -0.0159   0.00    1.0
2026/08/30 16:20:44.000   18.461989003  -69.915366935   -18.0928   2  22   0.0540   0.0955   0.1032  -0.0108  -0.0311  -0.0156   0.00    1.0
2026/08/30 16:20:45.000   18.461989030  -69.915366966   -18.0867   2  22   0.0532   0.0945   0.1015  -0.0118  -0.0311  -0.0153   0.00    1.0
2026/08/30 16:20:46.000   18.461989074  -69.915366982   -18.0784   2  21   0.0525   0.0936   0.0998  -0.0126  -0.0311  -0.0150   0.00    1.0
2026/08/30 16:20:47.000   18.461989094  -69.915366914   -18.0686   2  20   0.0517   0.0926   0.0982  -0.0133  -0.0312  -0.0147   0.00    1.0
2026/08/30 16:20:48.000   18.461989134  -69.915366930   -18.0698   2  21   0.0510   0.0917   0.0966  -0.0140  -0.0311  -0.0144   0.00    1.0
2026/08/30 16:20:49.000   18.461989181  -69.915366892   -18.0686   2  20   0.0503   0.0908   0.0951  -0.0145  -0.0312  -0.0142   0.00    1.0
2026/08/30 16:20:50.000   18.461989215  -69.915366819   -18.0604   2  19   0.0497   0.0900   0.0936  -0.0150  -0.0312  -0.0140   0.00    1.0
2026/08/30 16:20:51.000   18.461989289  -69.915366707   -18.0684   2  20   0.0490   0.0891   0.0921  -0.0154  -0.0312  -0.0138   0.00    1.0
2026/08/30 16:20:52.000   18.461989376  -69.915366555   -18.0715   2  20   0.0483   0.0882   0.0907  -0.0157  -0.0311  -0.0136   0.00    1.0
2026/08/30 16:20:53.000   18.461989384  -69.915366504   -18.0609   2  21   0.0477   0.0874   0.0893  -0.0160  -0.0310  -0.0134   0.00    1.0
2026/08/30 16:20:54.000   18.461989442  -69.915366437   -18.0677   2  21   0.0471   0.0865   0.0879  -0.0163  -0.0310  -0.0132   0.00    1.0
2026/08/30 16:20:55.000   18.461989465  -69.915366326   -18.0661   2  20   0.0464   0.0857   0.0866  -0.0165  -0.0309  -0.0130   0.00    1.0
2026/08/30 16:20:56.000   18.461989474  -69.915366263   -18.0567   2  21   0.0458   0.0849   0.0853  -0.0168  -0.0308  -0.0128   0.00    1.0
2026/08/30 16:20:57.000   18.461989474  -69.915366256   -18.0607   2  21   0.0453   0.0842   0.0840  -0.0170  -0.0307  -0.0126   0.00    1.0
2026/08/30 16:20:58.000   18.461989217  -69.915365631   -18.0633   2  22   0.0447   0.0833   0.0828  -0.0171  -0.0305  -0.0125   0.00    1.0
2026/08/30 16:20:59.000   18.461989306  -69.915365540   -18.0731   2  20   0.0441   0.0826   0.0816  -0.0172  -0.0304  -0.0123   0.00    1.0
2026/08/30 16:21:00.000   18.461989322  -69.915365439   -18.0805   2  20   0.0435   0.0819   0.0804  -0.0174  -0.0303  -0.0121   0.00    1.0
2026/08/30 16:21:01.000   18.461989360  -69.915365349   -18.0852   2  20   0.0430   0.0811   0.0793  -0.0175  -0.0302  -0.0120   0.00    1.0
2026/08/30 16:21:02.000   18.461989371  -69.915365277   -18.0896   2  20   0.0425   0.0804   0.0782  -0.0176  -0.0301  -0.0118   0.00    1.0
2026/08/30 16:21:03.000   18.461989361  -69.915365220   -18.0950   2  20   0.0420   0.0797   0.0771  -0.0178  -0.0300  -0.0116   0.00    1.0
2026/08/30 16:21:04.000   18.461989363  -69.915365177   -18.1070   2  19   0.0414   0.0791   0.0760  -0.0179  -0.0299  -0.0114   0.00    1.2
2026/08/30 16:21:05.000   18.461989359  -69.915365146   -18.1222   2  18   0.0409   0.0784   0.0750  -0.0180  -0.0298  -0.0112   0.00    1.0
2026/08/30 16:21:06.000   18.461989335  -69.915365036   -18.1273   2  19   0.0405   0.0778   0.0740  -0.0181  -0.0297  -0.0111   0.00    1.0
2026/08/30 16:21:07.000   18.461989326  -69.915365000   -18.1396   2  18   0.0400   0.0772   0.0730  -0.0182  -0.0296  -0.0109   0.00    1.0
2026/08/30 16:21:08.000   18.461989312  -69.915364902   -18.1519   2  20   0.0395   0.0765   0.0720  -0.0182  -0.0294  -0.0107   0.00    1.0
2026/08/30 16:21:09.000   18.461989312  -69.915364845   -18.1580   2  18   0.0390   0.0760   0.0710  -0.0183  -0.0293  -0.0105   0.00    1.0
2026/08/30 16:21:10.000   18.461989321  -69.915364746   -18.1668   2  18   0.0386   0.0754   0.0701  -0.0184  -0.0291  -0.0103   0.00    1.0
2026/08/30 16:21:11.000   18.461989338  -69.915364609   -18.1800   2  18   0.0382   0.0748   0.0692  -0.0184  -0.0290  -0.0102   0.00    1.0
2026/08/30 16:21:12.000   18.461989341  -69.915364478   -18.1858   2  20   0.0377   0.0742   0.0683  -0.0185  -0.0289  -0.0100   0.00    1.0
2026/08/30 16:21:13.000   18.461989332  -69.915364398   -18.1908   2  21   0.0373   0.0737   0.0674  -0.0185  -0.0287  -0.0098   0.00    1.0
2026/08/30 16:21:14.000   18.461989368  -69.915364334   -18.2057   2  21   0.0369   0.0731   0.0666  -0.0185  -0.0286  -0.0096   0.00    1.0
2026/08/30 16:21:15.000   18.461989376  -69.915364280   -18.2205   2  20   0.0365   0.0726   0.0657  -0.0186  -0.0284  -0.0095   0.00    1.0
2026/08/30 16:21:16.000   18.461989377  -69.915364213   -18.2340   2  21   0.0361   0.0720   0.0649  -0.0186  -0.0282  -0.0093   0.00    1.0
2026/08/30 16:21:17.000   18.461989380  -69.915364121   -18.2482   2  18   0.0357   0.0715   0.0641  -0.0186  -0.0281  -0.0091   0.00    1.0
2026/08/30 16:21:18.000   18.461989413  -69.915363985   -18.2640   2  19   0.0353   0.0709   0.0633  -0.0187  -0.0280  -0.0089   0.00    1.0
2026/08/30 16:21:19.000   18.461989457  -69.915363918   -18.2768   2  19   0.0349   0.0704   0.0626  -0.0187  -0.0278  -0.0088   0.00    1.0
2026/08/30 16:21:20.000   18.461989495  -69.915363817   -18.2895   2  17   0.0345   0.0699   0.0618  -0.0187  -0.0277  -0.0086   0.00    1.1
2026/08/30 16:21:21.000   18.461989521  -69.915363749   -18.2975   2  18   0.0342   0.0694   0.0611  -0.0187  -0.0276  -0.0084   0.00    1.0
2026/08/30 16:21:22.000   18.461989555  -69.915363707   -18.3086   2  18   0.0338   0.0689   0.0604  -0.0188  -0.0274  -0.0082   0.00    1.1
2026/08/30 16:21:23.000   18.461989577  -69.915363629   -18.3230   2  18   0.0335   0.0685   0.0597  -0.0188  -0.0273  -0.0080   0.00    1.0
2026/08/30 16:21:24.000   18.461989582  -69.915363577   -18.3383   2  17   0.0331   0.0680   0.0590  -0.0188  -0.0272  -0.0078   0.00    1.1
2026/08/30 16:21:25.000   18.461989586  -69.915363496   -18.3500   2  18   0.0328   0.0675   0.0583  -0.0188  -0.0271  -0.0077   0.00    1.0
2026/08/30 16:21:26.000   18.461989578  -69.915363403   -18.3623   2  19   0.0324   0.0670   0.0576  -0.0188  -0.0269  -0.0075   0.00    1.0
2026/08/30 16:21:27.000   18.461989568  -69.915363277   -18.3718   2  19   0.0321   0.0666   0.0570  -0.0188  -0.0268  -0.0073   0.00    1.0
2026/08/30 16:21:28.000   18.461989580  -69.915363132   -18.3821   2  17   0.0318   0.0662   0.0563  -0.0188  -0.0268  -0.0072   0.00    1.0
2026/08/30 16:21:29.000   18.461989569  -69.915362961   -18.3915   2  19   0.0315   0.0658   0.0557  -0.0187  -0.0267  -0.0071   0.00    1.0
2026/08/30 16:21:30.000   18.461989563  -69.915362815   -18.4028   2  19   0.0312   0.0653   0.0551  -0.0187  -0.0266  -0.0069   0.00    1.0
2026/08/30 16:21:31.000   18.461989551  -69.915362661   -18.4177   2  18   0.0309   0.0649   0.0546  -0.0187  -0.0266  -0.0068   0.00    1.1
2026/08/30 16:21:32.000   18.461989522  -69.915362491   -18.4306   2  18   0.0306   0.0645   0.0540  -0.0187  -0.0265  -0.0067   0.00    1.1
2026/08/30 16:21:33.000   18.461989504  -69.915362325   -18.4421   2  18   0.0303   0.0641   0.0534  -0.0186  -0.0264  -0.0065   0.00    1.1
2026/08/30 16:21:34.000   18.461989474  -69.915362161   -18.4520   2  18   0.0300   0.0638   0.0529  -0.0186  -0.0264  -0.0064   0.00    1.9
2026/08/30 16:21:35.000   18.461989447  -69.915362009   -18.4585   2  18   0.0297   0.0634   0.0523  -0.0186  -0.0263  -0.0063   0.00    1.9
