% program   : RTKLIB ver.EX 2.5.1
% inp file  : gnss/rinex/rover/rover_ublox_1s.obs
% inp file  : gnss/ppp/base_ventana.obs
% inp file  : gnss/rinex/base/base_completa.nav
% obs start : 2026/08/30 16:27:59.0 GPST (week2434  59279.0s)
% obs end   : 2026/08/30 16:30:04.0 GPST (week2434  59404.0s)
% pos mode  : Kinematic
% freqs     : L1+L2/E5b
% solution  : Forward
% elev mask : 15.0 deg
% dynamics  : off
% tidecorr  :
% ionos opt : Broadcast
% tropo opt : Saastamoinen
% ephemeris : Broadcast
% navi sys  : GPS GLONASS Galileo QZSS SBAS
% amb res   : Fix and Hold
% amb glo   : ON
% val thres : 3.0
% antenna1  :                       ( 0.0000  0.0000  0.0000)
% antenna2  :                       ( 0.0000  0.0000  0.0000)
% ref pos   :  18.459649417  -69.916687222   -11.5840
%
% (lat/lon/height=WGS84/ellipsoidal,Q=1:fix,2:float,3:sbas,4:dgps,5:single,6:ppp,ns=# of satellites)
%  GPST                  latitude(deg) longitude(deg)  height(m)   Q  ns   sdn(m)   sde(m)   sdu(m)  sdne(m)  sdeu(m)  sdun(m) age(s)  ratio
2026/08/30 16:27:59.000   18.461985648  -69.915344284   -15.2959   2  20   0.7204   0.8642   2.0053   0.2518   0.6093  -0.0876   0.00    0.0
2026/08/30 16:28:00.000   18.461987368  -69.915341271   -15.1827   2  21   0.5364   0.6381   1.4657   0.1785   0.4280   0.0706   0.00    0.0
2026/08/30 16:28:01.000   18.461989136  -69.915341772   -14.0467   2  22   0.4438   0.5267   1.2040   0.1589   0.3671   0.0081   0.00    0.0
2026/08/30 16:28:02.000   18.461989769  -69.915339747   -12.9884   2  23   0.3873   0.4596   1.0463   0.1423   0.3238  -0.0142   0.00    0.0
2026/08/30 16:28:03.000   18.461988720  -69.915340942   -12.9776   2  22   0.3479   0.4149   0.9428   0.1279   0.2952   0.0288   0.00    0.0
2026/08/30 16:28:04.000   18.461987878  -69.915341572   -13.0988   2  22   0.3189   0.3821   0.8657   0.1187   0.2746   0.0473   0.00    0.0
2026/08/30 16:28:05.000   18.461987200  -69.915342010   -13.1615   2  22   0.2962   0.3560   0.8039   0.1114   0.2574   0.0540   0.00    0.0
2026/08/30 16:28:06.000   18.461987038  -69.915341614   -12.9023   2  20   0.2774   0.3332   0.7501   0.1037   0.2387   0.0501   0.00    0.0
2026/08/30 16:28:07.000   18.461986343  -69.915341794   -12.7123   2  21   0.2617   0.3136   0.7041   0.0968   0.2214   0.0434   0.00    1.2
2026/08/30 16:28:08.000   18.461985857  -69.915343152   -12.7099   2  24   0.2476   0.2965   0.6647   0.0906   0.2087   0.0272   0.00    1.0
2026/08/30 16:28:09.000   18.461986164  -69.915342814   -12.6161   2  23   0.2361   0.2828   0.6324   0.0864   0.1981   0.0247   0.00    1.1
2026/08/30 16:28:10.000   18.461986398  -69.915342153   -12.6273   2  22   0.2262   0.2711   0.6041   0.0821   0.1883   0.0242   0.00    1.1
2026/08/30 16:28:11.000   18.461986512  -69.915342043   -12.6941   2  23   0.2170   0.2597   0.5781   0.0776   0.1788   0.0175   0.00    1.1
2026/08/30 16:28:12.000   18.461986726  -69.915341524   -12.6368   2  22   0.2090   0.2503   0.5551   0.0745   0.1717   0.0153   0.00    1.0
2026/08/30 16:28:13.000   18.461986845  -69.915341427   -12.6918   2  22   0.2017   0.2419   0.5340   0.0717   0.1649   0.0094   0.00    1.0
2026/08/30 16:28:14.000   18.461986842  -69.915341502   -12.7236   2  22   0.1950   0.2346   0.5159   0.0693   0.1602   0.0073   0.00    1.0
2026/08/30 16:28:15.000   18.461986893  -69.915341618   -12.8156   2  23   0.1889   0.2278   0.4987   0.0675   0.1566  -0.0052   0.00    1.0
2026/08/30 16:28:16.000   18.461986891  -69.915341436   -13.0281   2  21   0.1834   0.2219   0.4833   0.0653   0.1522   0.0070   0.00    1.1
2026/08/30 16:28:17.000   18.461986835  -69.915341694   -13.2762   2  22   0.1783   0.2159   0.4680   0.0630   0.1473  -0.0090   0.00    1.1
2026/08/30 16:28:18.000   18.461986906  -69.915341532   -13.3916   2  23   0.1734   0.2098   0.4535   0.0608   0.1422  -0.0134   0.00    1.1
2026/08/30 16:28:19.000   18.461986892  -69.915341796   -13.5512   2  23   0.1689   0.2045   0.4397   0.0590   0.1380  -0.0186   0.00    1.0
2026/08/30 16:28:20.000   18.461986908  -69.915341996   -13.7014   2  24   0.1647   0.1996   0.4268   0.0575   0.1341  -0.0221   0.00    1.0
2026/08/30 16:28:21.000   18.461987037  -69.915341889   -13.7432   2  24   0.1608   0.1949   0.4145   0.0561   0.1306  -0.0248   0.00    1.1
2026/08/30 16:28:22.000   18.461986931  -69.915341678   -13.7943   2  23   0.1571   0.1907   0.4031   0.0543   0.1268  -0.0259   0.00    1.0
2026/08/30 16:28:23.000   18.461986894  -69.915341243   -13.8679   2  24   0.1536   0.1867   0.3920   0.0530   0.1235  -0.0278   0.00    1.0
2026/08/30 16:28:24.000   18.461986830  -69.915341022   -13.9219   2  24   0.1502   0.1828   0.3815   0.0516   0.1204  -0.0291   0.00    1.1
2026/08/30 16:28:25.000   18.461986761  -69.915340846   -13.9654   2  23   0.1470   0.1792   0.3714   0.0502   0.1173  -0.0302   0.00    1.0
2026/08/30 16:28:26.000   18.461986645  -69.915340654   -14.0341   2  21   0.1440   0.1758   0.3619   0.0489   0.1142  -0.0306   0.00    1.0
2026/08/30 16:28:27.000   18.461986603  -69.915340563   -14.1342   2  23   0.1411   0.1726   0.3527   0.0475   0.1112  -0.0308   0.00    1.0
2026/08/30 16:28:28.000   18.461986461  -69.915340586   -14.2150   2  23   0.1385   0.1696   0.3439   0.0461   0.1083  -0.0313   0.00    1.1
2026/08/30 16:28:29.000   18.461986392  -69.915340547   -14.2795   2  23   0.1358   0.1667   0.3354   0.0449   0.1055  -0.0316   0.00    1.1
2026/08/30 16:28:30.000   18.461986327  -69.915340421   -14.2744   2  23   0.1332   0.1639   0.3272   0.0438   0.1028  -0.0317   0.00    0.0
2026/08/30 16:28:31.000   18.461986414  -69.915340402   -14.2490   2  24   0.1308   0.1611   0.3192   0.0426   0.1004  -0.0322   0.00    1.0
2026/08/30 16:28:32.000   18.461986506  -69.915340468   -14.2874   2  24   0.1285   0.1585   0.3115   0.0417   0.0980  -0.0326   0.00    1.0
2026/08/30 16:28:33.000   18.461986524  -69.915340476   -14.2927   2  24   0.1262   0.1560   0.3041   0.0406   0.0957  -0.0329   0.00    1.0
2026/08/30 16:28:34.000   18.461986553  -69.915340529   -14.3085   2  23   0.1240   0.1536   0.2969   0.0396   0.0935  -0.0331   0.00    1.0
2026/08/30 16:28:35.000   18.461986560  -69.915340712   -14.3430   2  23   0.1219   0.1513   0.2900   0.0386   0.0913  -0.0333   0.00    1.0
2026/08/30 16:28:36.000   18.461986522  -69.915340892   -14.4037   2  24   0.1198   0.1491   0.2833   0.0379   0.0892  -0.0335   0.00    1.0
2026/08/30 16:28:37.000   18.461986541  -69.915341111   -14.4586   2  24   0.1178   0.1470   0.2768   0.0369   0.0871  -0.0334   0.00    0.0
2026/08/30 16:28:38.000   18.461986588  -69.915341327   -14.5086   2  24   0.1160   0.1449   0.2715   0.0361   0.0857  -0.0319   0.00    1.0
2026/08/30 16:28:39.000   18.461986583  -69.915341524   -14.5509   2  24   0.1143   0.1430   0.2659   0.0354   0.0839  -0.0307   0.00    1.0
2026/08/30 16:28:40.000   18.461986524  -69.915341751   -14.5958   2  23   0.1125   0.1410   0.2604   0.0347   0.0822  -0.0298   0.00    1.0
2026/08/30 16:28:41.000   18.461986476  -69.915342009   -14.6624   2  23   0.1108   0.1391   0.2550   0.0341   0.0805  -0.0289   0.00    1.0
2026/08/30 16:28:42.000   18.461986455  -69.915342227   -14.7108   2  22   0.1091   0.1374   0.2499   0.0333   0.0790  -0.0281   0.00    1.0
2026/08/30 16:28:43.000   18.461986485  -69.915342581   -14.7815   2  23   0.1075   0.1357   0.2449   0.0327   0.0776  -0.0272   0.00    1.0
2026/08/30 16:28:44.000   18.461986518  -69.915342856   -14.8113   2  23   0.1059   0.1341   0.2401   0.0321   0.0763  -0.0263   0.00    1.0
2026/08/30 16:28:45.000   18.461986503  -69.915343111   -14.8948   2  22   0.1044   0.1325   0.2354   0.0315   0.0750  -0.0254   0.00    1.0
2026/08/30 16:28:46.000   18.461986485  -69.915343380   -14.9493   2  23   0.1029   0.1310   0.2308   0.0310   0.0738  -0.0247   0.00    1.0
2026/08/30 16:28:47.000   18.461986456  -69.915343537   -15.0017   2  23   0.1014   0.1295   0.2263   0.0304   0.0725  -0.0239   0.00    1.0
2026/08/30 16:28:48.000   18.461986495  -69.915343666   -15.0685   2  23   0.1000   0.1280   0.2219   0.0298   0.0712  -0.0232   0.00    1.0
2026/08/30 16:28:49.000   18.461986581  -69.915343803   -15.1547   2  23   0.0986   0.1266   0.2177   0.0292   0.0699  -0.0224   0.00    1.0
2026/08/30 16:28:50.000   18.461986637  -69.915343906   -15.2592   2  23   0.0973   0.1252   0.2135   0.0286   0.0687  -0.0218   0.00    1.0
2026/08/30 16:28:51.000   18.461986661  -69.915343980   -15.3640   2  23   0.0960   0.1238   0.2095   0.0279   0.0674  -0.0214   0.00    1.0
2026/08/30 16:28:52.000   18.461986781  -69.915344062   -15.4555   2  23   0.0948   0.1225   0.2056   0.0273   0.0662  -0.0208   0.00    1.0
2026/08/30 16:28:53.000   18.461986855  -69.915344141   -15.5634   2  23   0.0935   0.1212   0.2020   0.0267   0.0651  -0.0202   0.00    1.0
2026/08/30 16:28:54.000   18.461986993  -69.915344266   -15.6707   2  23   0.0922   0.1200   0.1987   0.0262   0.0639  -0.0183   0.00    1.0
2026/08/30 16:28:55.000   18.461987137  -69.915344409   -15.7974   2  22   0.0912   0.1187   0.1956   0.0256   0.0628  -0.0166   0.00    1.0
2026/08/30 16:28:56.000   18.461987240  -69.915344534   -15.9025   2  23   0.0900   0.1175   0.1924   0.0252   0.0618  -0.0142   0.00    1.0
2026/08/30 16:28:57.000   18.461987306  -69.915344551   -16.0018   2  22   0.0889   0.1163   0.1895   0.0244   0.0607  -0.0116   0.00    1.0
2026/08/30 16:28:58.000   18.461987402  -69.915344535   -16.1130   2  22   0.0880   0.1152   0.1866   0.0239   0.0597  -0.0075   0.00    1.0
2026/08/30 16:28:59.000   18.461987430  -69.915344614   -16.2226   2  22   0.0870   0.1141   0.1837   0.0234   0.0587   0.0036   0.00    1.0
2026/08/30 16:29:00.000   18.461987406  -69.915344788   -16.3151   2  22   0.0860   0.1130   0.1809   0.0229   0.0577   0.0084   0.00    1.0
2026/08/30 16:29:01.000   18.461987468  -69.915344749   -16.4071   2  21   0.0851   0.1120   0.1782   0.0222   0.0567   0.0112   0.00    1.0
2026/08/30 16:29:02.000   18.461987400  -69.915344834   -16.4623   2  22   0.0841   0.1108   0.1754   0.0218   0.0556   0.0134   0.00    1.0
2026/08/30 16:29:03.000   18.461987448  -69.915344814   -16.5429   2  22   0.0831   0.1097   0.1728   0.0214   0.0547   0.0149   0.00    1.0
2026/08/30 16:29:04.000   18.461987452  -69.915344870   -16.6237   2  23   0.0822   0.1086   0.1702   0.0208   0.0537   0.0159   0.00    1.0
2026/08/30 16:29:05.000   18.461987484  -69.915344907   -16.6707   2  22   0.0814   0.1075   0.1676   0.0202   0.0527   0.0171   0.00    1.1
2026/08/30 16:29:06.000   18.461987516  -69.915345028   -16.7407   2  23   0.0805   0.1066   0.1651   0.0197   0.0517   0.0179   0.00    1.1
2026/08/30 16:29:07.000   18.461987579  -69.915345190   -16.8454   2  23   0.0797   0.1055   0.1626   0.0192   0.0508   0.0189   0.00    1.0
2026/08/30 16:29:08.000   18.461987609  -69.915345345   -16.9258   2  22   0.0789   0.1045   0.1602   0.0186   0.0498   0.0195   0.00    1.0
2026/08/30 16:29:09.000   18.461987561  -69.915345502   -16.9812   2  22   0.0780   0.1037   0.1578   0.0179   0.0489   0.0202   0.00    1.0
2026/08/30 16:29:10.000   18.461987542  -69.915345636   -17.0345   2  22   0.0772   0.1027   0.1555   0.0174   0.0479   0.0208   0.00    1.1
2026/08/30 16:29:11.000   18.461987531  -69.915345745   -17.0781   2  21   0.0765   0.1018   0.1532   0.0166   0.0470   0.0212   0.00    1.1
2026/08/30 16:29:12.000   18.461987496  -69.915345920   -17.1114   2  22   0.0757   0.1009   0.1510   0.0162   0.0460   0.0218   0.00    1.0
2026/08/30 16:29:13.000   18.461987444  -69.915346273   -17.1544   2  22   0.0749   0.1001   0.1489   0.0153   0.0451   0.0222   0.00    1.0
2026/08/30 16:29:14.000   18.461987436  -69.915346487   -17.1984   2  21   0.0742   0.0993   0.1468   0.0151   0.0443   0.0226   0.00    1.0
2026/08/30 16:29:15.000   18.461987379  -69.915346689   -17.2017   2  21   0.0735   0.0984   0.1447   0.0143   0.0435   0.0229   0.00    1.0
2026/08/30 16:29:16.000   18.461987289  -69.915346944   -17.2058   2  21   0.0727   0.0976   0.1427   0.0138   0.0427   0.0233   0.00    1.0
2026/08/30 16:29:17.000   18.461987223  -69.915347237   -17.2319   2  21   0.0720   0.0968   0.1409   0.0132   0.0420   0.0240   0.00    1.0
2026/08/30 16:29:18.000   18.461987214  -69.915347480   -17.2530   2  23   0.0712   0.0960   0.1388   0.0124   0.0410   0.0242   0.00    1.0
2026/08/30 16:29:19.000   18.461987146  -69.915347698   -17.2825   2  22   0.0706   0.0952   0.1369   0.0116   0.0402   0.0242   0.00    1.0
2026/08/30 16:29:20.000   18.461987094  -69.915347940   -17.3015   2  22   0.0699   0.0944   0.1350   0.0110   0.0394   0.0245   0.00    1.0
2026/08/30 16:29:21.000   18.461986881  -69.915348331   -17.3105   2  20   0.0698   0.0946   0.1342   0.0142   0.0392   0.0242   0.00    1.0
2026/08/30 16:29:22.000   18.461986800  -69.915348582   -17.3224   2  20   0.0697   0.0954   0.1334   0.0174   0.0398   0.0249   0.00    1.0
2026/08/30 16:29:23.000   18.461986792  -69.915348733   -17.3310   2  20   0.0684   0.0930   0.1324   0.0099   0.0383   0.0237   0.00    1.0
2026/08/30 16:29:24.000   18.461986731  -69.915348990   -17.3302   2  22   0.0677   0.0923   0.1316   0.0079   0.0379   0.0233   0.00    1.0
2026/08/30 16:29:25.000   18.461986696  -69.915349122   -17.3417   2  20   0.0670   0.0915   0.1307   0.0054   0.0378   0.0234   0.00    1.0
2026/08/30 16:29:26.000   18.461986641  -69.915349231   -17.3485   2  22   0.0664   0.0909   0.1298  -0.0016   0.0375   0.0232   0.00    1.0
2026/08/30 16:29:27.000   18.461986556  -69.915349417   -17.3387   2  21   0.0659   0.0904   0.1290  -0.0052   0.0372   0.0231   0.00    1.0
2026/08/30 16:29:28.000   18.461986471  -69.915349523   -17.3369   2  22   0.0653   0.0898   0.1282  -0.0070   0.0370   0.0230   0.00    1.0
2026/08/30 16:29:29.000   18.461986372  -69.915349722   -17.3260   2  20   0.0649   0.0894   0.1274  -0.0075   0.0367   0.0227   0.00    1.0
2026/08/30 16:29:30.000   18.461986342  -69.915349867   -17.3128   2  22   0.0645   0.0889   0.1269  -0.0072   0.0359   0.0218   0.00    1.0
2026/08/30 16:29:31.000   18.461986276  -69.915349975   -17.2884   2  22   0.0638   0.0882   0.1259  -0.0098   0.0363   0.0226   0.00    1.0
2026/08/30 16:29:32.000   18.461986214  -69.915350170   -17.2770   2  21   0.0635   0.0881   0.1255  -0.0082   0.0354   0.0215   0.00    1.0
2026/08/30 16:29:33.000   18.461986142  -69.915350292   -17.2545   2  21   0.0630   0.0876   0.1248  -0.0092   0.0353   0.0215   0.00    1.0
2026/08/30 16:29:34.000   18.461985971  -69.915350502   -17.2300   2  20   0.0626   0.0873   0.1243  -0.0088   0.0351   0.0215   0.00    1.1
2026/08/30 16:29:35.000   18.461985982  -69.915350449   -17.2185   2  20   0.0623   0.0869   0.1237  -0.0091   0.0349   0.0213   0.00    1.0
2026/08/30 16:29:36.000   18.461985983  -69.915350381   -17.2151   2  20   0.0615   0.0860   0.1230  -0.0123   0.0357   0.0223   0.00    1.1
2026/08/30 16:29:37.000   18.461986040  -69.915350207   -17.2117   2  20   0.0611   0.0855   0.1224  -0.0129   0.0356   0.0223   0.00    1.1
2026/08/30 16:29:38.000   18.461986075  -69.915350135   -17.2072   2  21   0.0608   0.0851   0.1219  -0.0133   0.0355   0.0221   0.00    1.1
2026/08/30 16:29:39.000   18.461986099  -69.915350048   -17.1949   2  20   0.0605   0.0846   0.1213  -0.0133   0.0354   0.0219   0.00    1.1
2026/08/30 16:29:40.000   18.461986077  -69.915350138   -17.2017   2  21   0.0602   0.0842   0.1208  -0.0137   0.0353   0.0218   0.00    1.0
2026/08/30 16:29:41.000   18.461986082  -69.915350230   -17.2048   2  22   0.0599   0.0838   0.1202  -0.0137   0.0351   0.0215   0.00    1.0
2026/08/30 16:29:42.000   18.461986077  -69.915350230   -17.1988   2  22   0.0596   0.0834   0.1197  -0.0138   0.0349   0.0213   0.00    1.0
2026/08/30 16:29:43.000   18.461986089  -69.915350231   -17.1967   2  21   0.0593   0.0829   0.1192  -0.0139   0.0347   0.0212   0.00    1.0
2026/08/30 16:29:44.000   18.461986101  -69.915350264   -17.1867   2  21   0.0591   0.0827   0.1187  -0.0140   0.0344   0.0206   0.00    1.0
2026/08/30 16:29:45.000   18.461986085  -69.915350350   -17.1588   2  23   0.0590   0.0832   0.1199  -0.0145   0.0309   0.0215   0.00    1.0
2026/08/30 16:29:46.000   18.461986048  -69.915350208   -17.1842   2  21   0.0586   0.0820   0.1184  -0.0140   0.0341   0.0213   0.00    1.0
2026/08/30 16:29:47.000   18.461986053  -69.915350160   -17.1606   2  22   0.0584   0.0816   0.1183  -0.0141   0.0340   0.0215   0.00    1.0
2026/08/30 16:29:48.000   18.461986032  -69.915350108   -17.1552   2  21   0.0582   0.0813   0.1180  -0.0138   0.0343   0.0216   0.00    1.1
2026/08/30 16:29:49.000   18.461986060  -69.915349961   -17.1519   2  21   0.0580   0.0808   0.1176  -0.0140   0.0346   0.0218   0.00    1.0
2026/08/30 16:29:50.000   18.461986050  -69.915349851   -17.1434   2  22   0.0578   0.0805   0.1173  -0.0137   0.0349   0.0219   0.00    1.1
2026/08/30 16:29:51.000   18.461986023  -69.915349779   -17.1343   2  20   0.0576   0.0801   0.1170  -0.0137   0.0350   0.0222   0.00    1.1
2026/08/30 16:29:52.000   18.461986007  -69.915349718   -17.1327   2  20   0.0574   0.0797   0.1167  -0.0136   0.0352   0.0223   0.00    1.2
2026/08/30 16:29:53.000   18.461985991  -69.915349586   -17.1237   2  19   0.0572   0.0794   0.1164  -0.0135   0.0353   0.0224   0.00    1.2
2026/08/30 16:29:54.000   18.461985994  -69.915349450   -17.1225   2  19   0.0570   0.0791   0.1161  -0.0133   0.0354   0.0227   0.00    1.3
2026/08/30 16:29:55.000   18.461986022  -69.915349274   -17.1051   2  21   0.0567   0.0789   0.1158  -0.0134   0.0355   0.0227   0.00    1.1
2026/08/30 16:29:56.000   18.461986039  -69.915349154   -17.1030   2  22   0.0567   0.0785   0.1155  -0.0132   0.0356   0.0228   0.00    1.1
2026/08/30 16:29:57.000   18.461986063  -69.915349018   -17.0823   2  21   0.0566   0.0782   0.1152  -0.0133   0.0358   0.0227   0.00    1.0
2026/08/30 16:29:58.000   18.461986086  -69.915348887   -17.0726   2  22   0.0562   0.0779   0.1149  -0.0131   0.0358   0.0229   0.00    1.0
2026/08/30 16:29:59.000   18.461986119  -69.915348715   -17.0632   2  23   0.0560   0.0776   0.1146  -0.0130   0.0359   0.0232   0.00    1.0
2026/08/30 16:30:00.000   18.461986111  -69.915348610   -17.0474   2  22   0.0557   0.0773   0.1144  -0.0129   0.0361   0.0232   0.00    1.0
2026/08/30 16:30:01.000   18.461986112  -69.915348498   -17.0341   2  21   0.0557   0.0770   0.1141  -0.0128   0.0362   0.0234   0.00    1.0
2026/08/30 16:30:02.000   18.461986142  -69.915348365   -17.0245   2  21   0.0554   0.0768   0.1138  -0.0128   0.0363   0.0233   0.00    1.0
2026/08/30 16:30:03.000   18.461986144  -69.915348275   -17.0268   2  20   0.0552   0.0765   0.1135  -0.0126   0.0364   0.0235   0.00    1.1
2026/08/30 16:30:04.000   18.461986149  -69.915348177   -17.0117   2  22   0.0551   0.0762   0.1132  -0.0126   0.0365   0.0235   0.00    1.0
